[{"OBJECT_NAME":"STARLINK-30360","OBJECT_ID":"2023-134F","EPOCH":"2026-03-09T10:15:23.943744","MEAN_MOTION":15.26742217,"ECCENTRICITY":0.00011889,"INCLINATION":42.998,"RA_OF_ASC_NODE":196.2238,"ARG_OF_PERICENTER":219.3661,"MEAN_ANOMALY":140.7104,"EPHEMERIS_TYPE":0,"CLASSIFICATION_TYPE":"U","NORAD_CAT_ID":57776,"ELEMENT_SET_NO":999,"REV_AT_EPOCH":13946,"BSTAR":9.408504e-6,"MEAN_MOTION_DOT":-7.0e-8,"MEAN_MOTION_DDOT":0},{"OBJECT_NAME":"XCUBE-1","OBJECT_ID":"2024-247Z","EPOCH":"2026-03-09T11:35:28.885344","MEAN_MOTION":15.27910558,"ECCENTRICITY":0.00052355,"INCLINATION":44.9938,"RA_OF_ASC_NODE":117.7807,"ARG_OF_PERICENTER":331.1499,"MEAN_ANOMALY":28.9094,"EPHEMERIS_TYPE":0,"CLASSIFICATION_TYPE":"U","NORAD_CAT_ID":62400,"ELEMENT_SET_NO":999,"REV_AT_EPOCH":6770,"BSTAR":0.00036224252,"MEAN_MOTION_DOT":9.773e-5,"MEAN_MOTION_DDOT":0}]
